ALOS-4 (DAICHI-4)       
1 60182U 24123A   24238.85903113  .00002981  00000+0  40589-3 0  9996
2 60182  97.9210 334.5198 0001563  97.6892 262.4497 14.79472397  8247
